{
  "type": "FeatureCollection",
  "features": [
    {
      "type": "Feature",
      "properties": {
        "color": "#ec8e81"
      },
      "geometry": {
        "type": "Polygon",
        "coordinates": [
          [
            [
              -72.332878,
              18.535854
            ],
            [
              -72.332878,
              18.539922
            ],
            [
              -72.326786,
              18.539922
            ],
            [
              -72.326786,
              18.535854
            ],
            [
              -72.332878,
              18.535854
            ]
          ]
        ]
      }
    }
  ]
}