{
  "type": "FeatureCollection",
  "features": [
    {
      "geometry": {
        "type": "Polygon",
        "coordinates": [
          [
            [
              -72.346781,
              18.542444
            ],
            [
              -72.347038,
              18.538783
            ],
            [
              -72.333652,
              18.537399
            ],
            [
              -72.331679,
              18.544722
            ],
            [
              -72.342147,
              18.545535
            ],
            [
              -72.346781,
              18.542444
            ]
          ]
        ]
      },
      "properties": {
        "color": "#ec8e81"
      },
      "type": "Feature"
    },
    {
      "geometry": {
        "type": "Polygon",
        "coordinates": [
          [
            [
              -72.327992,
              18.53024
            ],
            [
              -72.32722,
              18.535203
            ],
            [
              -72.319669,
              18.535691
            ],
            [
              -72.319927,
              18.529589
            ],
            [
              -72.32722,
              18.528776
            ],
            [
              -72.327992,
              18.53024
            ]
          ]
        ]
      },
      "properties": {
        "color": "#ec8e81"
      },
      "type": "Feature"
    },
    {
      "type": "Feature",
      "properties": {
        "color": "#ec8e81"
      },
      "geometry": {
        "type": "Polygon",
        "coordinates": [
          [
            [
              -72.340527,
              18.53431
            ],
            [
              -72.339325,
              18.52894
            ],
            [
              -72.332118,
              18.52894
            ],
            [
              -72.330058,
              18.535612
            ],
            [
              -72.340527,
              18.53431
            ]
          ]
        ]
      }
    }
  ]
}