{
  "type": "FeatureCollection",
  "features": [
    {
      "type": "Feature",
      "properties": {
        "color": "#e74c3c"
      },
      "geometry": {
        "type": "Polygon",
        "coordinates": [
          [
            [
              -74.668723,
              19.570365
            ],
            [
              -74.668723,
              19.782373
            ],
            [
              -74.432582,
              19.782373
            ],
            [
              -74.432582,
              19.570365
            ],
            [
              -74.668723,
              19.570365
            ]
          ]
        ]
      }
    }
  ]
}