{
  "type": "FeatureCollection",
  "features": [
    {
      "geometry": {
        "type": "Polygon",
        "coordinates": [
          [
            [
              -72.333818,
              18.534226
            ],
            [
              -72.333818,
              18.539514
            ],
            [
              -72.324293,
              18.539514
            ],
            [
              -72.324293,
              18.534226
            ],
            [
              -72.333818,
              18.534226
            ]
          ]
        ]
      },
      "properties": {
        "color": "#e74c3c"
      },
      "type": "Feature"
    },
    {
      "type": "Feature",
      "properties": {
        "color": "#f1c40f"
      },
      "geometry": {
        "type": "Polygon",
        "coordinates": [
          [
            [
              -72.340154,
              18.552531
            ],
            [
              -72.348649,
              18.545291
            ],
            [
              -72.343587,
              18.539515
            ],
            [
              -72.335778,
              18.540735
            ],
            [
              -72.326854,
              18.544478
            ],
            [
              -72.332603,
              18.550823
            ],
            [
              -72.340154,
              18.552531
            ]
          ]
        ]
      }
    }
  ]
}