{
  "type": "FeatureCollection",
  "features": [
    {
      "type": "Feature",
      "properties": {
        "color": "#ec8e81"
      },
      "geometry": {
        "type": "Polygon",
        "coordinates": [
          [
            [
              -72.346781,
              18.542444
            ],
            [
              -72.347038,
              18.538783
            ],
            [
              -72.333652,
              18.537399
            ],
            [
              -72.331679,
              18.544722
            ],
            [
              -72.342147,
              18.545535
            ],
            [
              -72.346781,
              18.542444
            ]
          ]
        ]
      }
    }
  ]
}