{
  "type": "FeatureCollection",
  "features": [
    {
      "type": "Feature",
      "properties": {
        "color": "#ec8e81"
      },
      "geometry": {
        "type": "Polygon",
        "coordinates": [
          [
            [
              -72.334662,
              18.527633
            ],
            [
              -72.321105,
              18.541627
            ],
            [
              -72.303085,
              18.536583
            ],
            [
              -72.308062,
              18.525355
            ],
            [
              -72.313211,
              18.511848
            ],
            [
              -72.321448,
              18.512824
            ],
            [
              -72.334662,
              18.527633
            ]
          ]
        ]
      }
    }
  ]
}