{
  "type": "FeatureCollection",
  "features": [
    {
      "geometry": {
        "type": "Polygon",
        "coordinates": [
          [
            [
              -72.328319,
              18.537234
            ],
            [
              -72.333484,
              18.52796
            ],
            [
              -72.324388,
              18.513477
            ],
            [
              -72.314949,
              18.507944
            ],
            [
              -72.309801,
              18.512338
            ],
            [
              -72.306369,
              18.521288
            ],
            [
              -72.307055,
              18.525031
            ],
            [
              -72.304309,
              18.527147
            ],
            [
              -72.301735,
              18.528123
            ],
            [
              -72.301907,
              18.530239
            ],
            [
              -72.296758,
              18.530401
            ],
            [
              -72.296072,
              18.538212
            ],
            [
              -72.316665,
              18.54407
            ],
            [
              -72.328319,
              18.537234
            ]
          ]
        ]
      },
      "properties": {
        "color": "#ebcf61"
      },
      "type": "Feature"
    },
    {
      "geometry": {
        "type": "Polygon",
        "coordinates": [
          [
            [
              -72.356314,
              18.539681
            ],
            [
              -72.353568,
              18.538054
            ],
            [
              -72.346361,
              18.536426
            ],
            [
              -72.336235,
              18.541959
            ],
            [
              -72.337093,
              18.549118
            ],
            [
              -72.342757,
              18.551559
            ],
            [
              -72.34945,
              18.552209
            ],
            [
              -72.349621,
              18.547816
            ],
            [
              -72.34945,
              18.543749
            ],
            [
              -72.356314,
              18.539681
            ]
          ]
        ]
      },
      "properties": {
        "color": "#d47c62"
      },
      "type": "Feature"
    },
    {
      "type": "Feature",
      "properties": {
        "color": "#ec8e81"
      },
      "geometry": {
        "type": "Polygon",
        "coordinates": [
          [
            [
              -72.33023,
              18.543916
            ],
            [
              -72.33023,
              18.54896
            ],
            [
              -72.322851,
              18.54896
            ],
            [
              -72.322851,
              18.543916
            ],
            [
              -72.33023,
              18.543916
            ]
          ]
        ]
      }
    },
    {
      "type": "Feature",
      "properties": {
        "color": "#ec8e81",
        "radius": 601.4372813052835
      },
      "geometry": {
        "type": "Point",
        "coordinates": [
          -72.33743773949767,
          18.53952281722921
        ]
      }
    },
    {
      "type": "Feature",
      "properties": {
        "color": "#ec8e81",
        "radius": 703.7844671935792
      },
      "geometry": {
        "type": "Point",
        "coordinates": [
          -72.34584683074544,
          18.53106136815268
        ]
      }
    }
  ]
}