{
  "type": "FeatureCollection",
  "features": [
    {
      "type": "Feature",
      "properties": {
        "color": "#ec8e81"
      },
      "geometry": {
        "type": "Polygon",
        "coordinates": [
          [
            [
              -72.329308,
              18.529464
            ],
            [
              -72.323688,
              18.532718
            ],
            [
              -72.320728,
              18.529342
            ],
            [
              -72.324718,
              18.52625
            ],
            [
              -72.329308,
              18.529464
            ]
          ]
        ]
      }
    }
  ]
}