{
  "type": "FeatureCollection",
  "features": [
    {
      "type": "Feature",
      "properties": {
        "color": "#e74c3c"
      },
      "geometry": {
        "type": "Polygon",
        "coordinates": [
          [
            [
              -74.389042,
              19.456761
            ],
            [
              -74.389042,
              19.632668
            ],
            [
              -73.977168,
              19.632668
            ],
            [
              -73.977168,
              19.456761
            ],
            [
              -74.389042,
              19.456761
            ]
          ]
        ]
      }
    }
  ]
}