{
  "type": "FeatureCollection",
  "features": [
    {
      "type": "Feature",
      "properties": {
        "color": "#ec8e81"
      },
      "geometry": {
        "type": "Polygon",
        "coordinates": [
          [
            [
              -75.498549,
              18.813146
            ],
            [
              -76.322297,
              19.000188
            ],
            [
              -75.245933,
              19.880576
            ],
            [
              -75.498549,
              18.813146
            ]
          ]
        ]
      }
    }
  ]
}