{
  "type": "FeatureCollection",
  "features": [
    {
      "type": "Feature",
      "properties": {
        "color": "#e74c3c"
      },
      "geometry": {
        "type": "Polygon",
        "coordinates": [
          [
            [
              -73.814555,
              19.14022
            ],
            [
              -73.814555,
              19.212816
            ],
            [
              -73.690993,
              19.212816
            ],
            [
              -73.690993,
              19.14022
            ],
            [
              -73.814555,
              19.14022
            ]
          ]
        ]
      }
    }
  ]
}