{
  "type": "FeatureCollection",
  "features": [
    {
      "geometry": {
        "type": "Polygon",
        "coordinates": [
          [
            [
              -72.334662,
              18.527633
            ],
            [
              -72.321105,
              18.541627
            ],
            [
              -72.303085,
              18.536583
            ],
            [
              -72.308062,
              18.525355
            ],
            [
              -72.313211,
              18.511848
            ],
            [
              -72.321448,
              18.512824
            ],
            [
              -72.334662,
              18.527633
            ]
          ]
        ]
      },
      "properties": {
        "color": "#ec8e81"
      },
      "type": "Feature"
    },
    {
      "type": "Feature",
      "properties": {
        "color": "#ff0000"
      },
      "geometry": {
        "type": "Polygon",
        "coordinates": [
          [
            [
              -72.347902,
              18.543099
            ],
            [
              -72.339665,
              18.534963
            ],
            [
              -72.326622,
              18.545702
            ],
            [
              -72.342925,
              18.54977
            ],
            [
              -72.347902,
              18.543099
            ]
          ]
        ]
      }
    }
  ]
}