{
  "type": "FeatureCollection",
  "features": [
    {
      "type": "Feature",
      "properties": {
        "color": "#e74c3c"
      },
      "geometry": {
        "type": "Polygon",
        "coordinates": [
          [
            [
              -75.08164,
              19.083424
            ],
            [
              -75.08164,
              19.425615
            ],
            [
              -74.433626,
              19.425615
            ],
            [
              -74.433626,
              19.083424
            ],
            [
              -75.08164,
              19.083424
            ]
          ]
        ]
      }
    }
  ]
}