{
  "type": "FeatureCollection",
  "features": [
    {
      "geometry": {
        "type": "Polygon",
        "coordinates": [
          [
            [
              -72.333818,
              18.534226
            ],
            [
              -72.333818,
              18.539514
            ],
            [
              -72.324293,
              18.539514
            ],
            [
              -72.324293,
              18.534226
            ],
            [
              -72.333818,
              18.534226
            ]
          ]
        ]
      },
      "properties": {
        "color": "#e74c3c"
      },
      "type": "Feature"
    },
    {
      "geometry": {
        "type": "Polygon",
        "coordinates": [
          [
            [
              -72.340154,
              18.552531
            ],
            [
              -72.348649,
              18.545291
            ],
            [
              -72.343587,
              18.539515
            ],
            [
              -72.335778,
              18.540735
            ],
            [
              -72.326854,
              18.544478
            ],
            [
              -72.332603,
              18.550823
            ],
            [
              -72.340154,
              18.552531
            ]
          ]
        ]
      },
      "properties": {
        "color": "#f1c40f"
      },
      "type": "Feature"
    },
    {
      "geometry": {
        "type": "Point",
        "coordinates": [
          -72.36351173901103,
          18.58898424768803
        ]
      },
      "properties": {
        "color": "#f1c40f",
        "radius": 1747.3069790580523
      },
      "type": "Feature"
    },
    {
      "type": "Feature",
      "properties": {
        "color": "#ec8e81",
        "radius": 9113.690903906861
      },
      "geometry": {
        "type": "Point",
        "coordinates": [
          -72.52077539897353,
          18.588343443448025
        ]
      }
    }
  ]
}