{
  "type": "FeatureCollection",
  "features": [
    {
      "type": "Feature",
      "properties": {
        "color": "#ebcf61"
      },
      "geometry": {
        "type": "Polygon",
        "coordinates": [
          [
            [
              -72.328319,
              18.537234
            ],
            [
              -72.333484,
              18.52796
            ],
            [
              -72.324388,
              18.513477
            ],
            [
              -72.314949,
              18.507944
            ],
            [
              -72.309801,
              18.512338
            ],
            [
              -72.306369,
              18.521288
            ],
            [
              -72.307055,
              18.525031
            ],
            [
              -72.304309,
              18.527147
            ],
            [
              -72.301735,
              18.528123
            ],
            [
              -72.301907,
              18.530239
            ],
            [
              -72.296758,
              18.530401
            ],
            [
              -72.296072,
              18.538212
            ],
            [
              -72.316665,
              18.54407
            ],
            [
              -72.328319,
              18.537234
            ]
          ]
        ]
      }
    }
  ]
}