{
  "type": "FeatureCollection",
  "features": [
    {
      "geometry": {
        "type": "Polygon",
        "coordinates": [
          [
            [
              -72.333818,
              18.534226
            ],
            [
              -72.333818,
              18.539514
            ],
            [
              -72.324293,
              18.539514
            ],
            [
              -72.324293,
              18.534226
            ],
            [
              -72.333818,
              18.534226
            ]
          ]
        ]
      },
      "properties": {
        "color": "#e74c3c"
      },
      "type": "Feature"
    }
  ]
}