{
  "type": "FeatureCollection",
  "features": [
    {
      "type": "Feature",
      "properties": {
        "color": "#e74c3c"
      },
      "geometry": {
        "type": "Polygon",
        "coordinates": [
          [
            [
              -75.762148,
              19.352611
            ],
            [
              -75.762148,
              19.466592
            ],
            [
              -75.487566,
              19.466592
            ],
            [
              -75.487566,
              19.352611
            ],
            [
              -75.762148,
              19.352611
            ]
          ]
        ]
      }
    }
  ]
}