{
  "type": "FeatureCollection",
  "features": [
    {
      "type": "Feature",
      "properties": {
        "color": "#ec8e81"
      },
      "geometry": {
        "type": "Polygon",
        "coordinates": [
          [
            [
              -73.160828,
              19.005057
            ],
            [
              -73.160828,
              19.103686
            ],
            [
              -72.921941,
              19.103686
            ],
            [
              -72.921941,
              19.005057
            ],
            [
              -73.160828,
              19.005057
            ]
          ]
        ]
      }
    }
  ]
}