{
  "type": "FeatureCollection",
  "features": [
    {
      "type": "Feature",
      "properties": {
        "color": "#ec8e81"
      },
      "geometry": {
        "type": "Polygon",
        "coordinates": [
          [
            [
              -72.346873,
              18.535932
            ],
            [
              -72.34876,
              18.527958
            ],
            [
              -72.347387,
              18.524378
            ],
            [
              -72.341038,
              18.524541
            ],
            [
              -72.335546,
              18.526006
            ],
            [
              -72.334688,
              18.527958
            ],
            [
              -72.332457,
              18.52747
            ],
            [
              -72.325154,
              18.532189
            ],
            [
              -72.32215,
              18.544962
            ],
            [
              -72.317949,
              18.551799
            ],
            [
              -72.337599,
              18.554483
            ],
            [
              -72.349622,
              18.550576
            ],
            [
              -72.356486,
              18.538536
            ],
            [
              -72.346873,
              18.535932
            ]
          ]
        ]
      }
    }
  ]
}