{
  "type": "FeatureCollection",
  "features": [
    {
      "type": "Feature",
      "properties": {
        "color": "#e74c3c"
      },
      "geometry": {
        "type": "Polygon",
        "coordinates": [
          [
            [
              -75.948864,
              18.854729
            ],
            [
              -75.948864,
              19.155896
            ],
            [
              -75.245933,
              19.155896
            ],
            [
              -75.245933,
              18.854729
            ],
            [
              -75.948864,
              18.854729
            ]
          ]
        ]
      }
    }
  ]
}