{
  "type": "FeatureCollection",
  "features": [
    {
      "geometry": {
        "type": "Polygon",
        "coordinates": [
          [
            [
              -72.329308,
              18.529464
            ],
            [
              -72.323688,
              18.532718
            ],
            [
              -72.320728,
              18.529342
            ],
            [
              -72.324718,
              18.52625
            ],
            [
              -72.329308,
              18.529464
            ]
          ]
        ]
      },
      "properties": {
        "color": "#ec8e81"
      },
      "type": "Feature"
    },
    {
      "geometry": {
        "type": "Polygon",
        "coordinates": [
          [
            [
              -72.343777,
              18.529182
            ],
            [
              -72.343777,
              18.53447
            ],
            [
              -72.335282,
              18.53447
            ],
            [
              -72.335282,
              18.529182
            ],
            [
              -72.343777,
              18.529182
            ]
          ]
        ]
      },
      "properties": {
        "color": "#ec8e81"
      },
      "type": "Feature"
    },
    {
      "type": "Feature",
      "properties": {
        "color": "#e74c3c"
      },
      "geometry": {
        "type": "Polygon",
        "coordinates": [
          [
            [
              -72.333818,
              18.534226
            ],
            [
              -72.333818,
              18.539514
            ],
            [
              -72.324293,
              18.539514
            ],
            [
              -72.324293,
              18.534226
            ],
            [
              -72.333818,
              18.534226
            ]
          ]
        ]
      }
    }
  ]
}